{
  "type": "FeatureCollection",
  "features": [
    {
      "type": "Feature",
      "properties": {
        "norad_id": 41556,
        "name": "ZIYUAN 3-2 (ZY 3-2)",
        "group": "resource",
        "lat": 73.41770813002576,
        "lon": -101.34233559524954,
        "alt_km": 503.414141276141,
        "timestamp": "2025-12-04T10:51:49.763363+00:00",
        "meta_object_name": "ZIYUAN 3-2 (ZY 3-2)",
        "meta_object_id": "2016-033A",
        "meta_epoch": "2025-12-04T04:05:22.513344",
        "meta_mean_motion": 15.21308482,
        "meta_eccentricity": 0.0012463,
        "meta_inclination": 97.406,
        "meta_ra_of_asc_node": 52.4789,
        "meta_arg_of_pericenter": 282.5498,
        "meta_mean_anomaly": 77.4344,
        "meta_ephemeris_type": 0,
        "meta_classification_type": "U",
        "meta_norad_cat_id": 41556,
        "meta_element_set_no": 999,
        "meta_rev_at_epoch": 52833,
        "meta_bstar": 0.00073655,
        "meta_mean_motion_dot": 0.00016467,
        "meta_mean_motion_ddot": 0,
        "tle_line1": "1 41556U 16033A   25338.17039946  .00016467  00000+0  73655-3 0  9996",
        "tle_line2": "2 41556  97.4060  52.4789 0012463 282.5498  77.4344 15.21308482528332"
      },
      "geometry": {
        "type": "Point",
        "coordinates": [
          -101.34233559524954,
          73.41770813002576
        ]
      }
    },
    {
      "type": "Feature",
      "properties": {
        "norad_id": 41599,
        "name": "CARTOSAT-2C",
        "group": "resource",
        "lat": 65.20100784892097,
        "lon": -127.6964846665777,
        "alt_km": 495.076760365625,
        "timestamp": "2025-12-04T10:51:49.763374+00:00",
        "meta_object_name": "CARTOSAT-2C",
        "meta_object_id": "2016-040A",
        "meta_epoch": "2025-12-04T05:37:24.686400",
        "meta_mean_motion": 15.19160359,
        "meta_eccentricity": 0.0011005,
        "meta_inclination": 97.4777,
        "meta_ra_of_asc_node": 35.5718,
        "meta_arg_of_pericenter": 91.1286,
        "meta_mean_anomaly": 269.1209,
        "meta_ephemeris_type": 0,
        "meta_classification_type": "U",
        "meta_norad_cat_id": 41599,
        "meta_element_set_no": 999,
        "meta_rev_at_epoch": 52411,
        "meta_bstar": 4.1604e-05,
        "meta_mean_motion_dot": 8.07e-06,
        "meta_mean_motion_ddot": 0,
        "tle_line1": "1 41599U 16040A   25338.23431350  .00000807  00000+0  41604-4 0  9994",
        "tle_line2": "2 41599  97.4777  35.5718 0011005  91.1286 269.1209 15.19160359524116"
      },
      "geometry": {
        "type": "Point",
        "coordinates": [
          -127.6964846665777,
          65.20100784892097
        ]
      }
    },
    {
      "type": "Feature",
      "properties": {
        "norad_id": 41601,
        "name": "SKYSAT-C1",
        "group": "resource",
        "lat": 44.80465979181742,
        "lon": -157.07195266975185,
        "alt_km": 465.36785389844135,
        "timestamp": "2025-12-04T10:51:49.763384+00:00",
        "meta_object_name": "SKYSAT-C1",
        "meta_object_id": "2016-040C",
        "meta_epoch": "2025-12-04T02:26:31.439328",
        "meta_mean_motion": 15.32346944,
        "meta_eccentricity": 0.0003253,
        "meta_inclination": 96.9835,
        "meta_ra_of_asc_node": 15.6041,
        "meta_arg_of_pericenter": 37.1796,
        "meta_mean_anomaly": 322.9672,
        "meta_ephemeris_type": 0,
        "meta_classification_type": "U",
        "meta_norad_cat_id": 41601,
        "meta_element_set_no": 999,
        "meta_rev_at_epoch": 52795,
        "meta_bstar": 0.00057871,
        "meta_mean_motion_dot": 0.00018027,
        "meta_mean_motion_ddot": 0,
        "tle_line1": "1 41601U 16040C   25338.10175277  .00018027  00000+0  57871-3 0  9992",
        "tle_line2": "2 41601  96.9835  15.6041 0003253  37.1796 322.9672 15.32346944527957"
      },
      "geometry": {
        "type": "Point",
        "coordinates": [
          -157.07195266975185,
          44.80465979181742
        ]
      }
    },
    {
      "type": "Feature",
      "properties": {
        "norad_id": 41603,
        "name": "LAPAN-A3",
        "group": "resource",
        "lat": -52.272356017258026,
        "lon": -14.361260493208453,
        "alt_km": 474.52837437841026,
        "timestamp": "2025-12-04T10:51:49.763397+00:00",
        "meta_object_name": "LAPAN-A3",
        "meta_object_id": "2016-040E",
        "meta_epoch": "2025-12-04T04:49:16.328352",
        "meta_mean_motion": 15.31446901,
        "meta_eccentricity": 0.0010739,
        "meta_inclination": 97.142,
        "meta_ra_of_asc_node": 336.0689,
        "meta_arg_of_pericenter": 5.4358,
        "meta_mean_anomaly": 354.6998,
        "meta_ephemeris_type": 0,
        "meta_classification_type": "U",
        "meta_norad_cat_id": 41603,
        "meta_element_set_no": 999,
        "meta_rev_at_epoch": 52495,
        "meta_bstar": 0.00024834,
        "meta_mean_motion_dot": 7.481e-05,
        "meta_mean_motion_ddot": 0,
        "tle_line1": "1 41603U 16040E   25338.20088343  .00007481  00000+0  24834-3 0  9997",
        "tle_line2": "2 41603  97.1420 336.0689 0010739   5.4358 354.6998 15.31446901524952"
      },
      "geometry": {
        "type": "Point",
        "coordinates": [
          -14.361260493208453,
          -52.272356017258026
        ]
      }
    },
    {
      "type": "Feature",
      "properties": {
        "norad_id": 41604,
        "name": "BIROS",
        "group": "resource",
        "lat": -67.14077472771895,
        "lon": 172.4522366141405,
        "alt_km": 319.57064711887597,
        "timestamp": "2025-12-04T10:51:49.763407+00:00",
        "meta_object_name": "BIROS",
        "meta_object_id": "2016-040F",
        "meta_epoch": "2025-12-04T02:15:02.134944",
        "meta_mean_motion": 15.86156799,
        "meta_eccentricity": 0.0002783,
        "meta_inclination": 97.0702,
        "meta_ra_of_asc_node": 9.2033,
        "meta_arg_of_pericenter": 169.6371,
        "meta_mean_anomaly": 190.4958,
        "meta_ephemeris_type": 0,
        "meta_classification_type": "U",
        "meta_norad_cat_id": 41604,
        "meta_element_set_no": 999,
        "meta_rev_at_epoch": 52735,
        "meta_bstar": 0.00085334,
        "meta_mean_motion_dot": 0.00215032,
        "meta_mean_motion_ddot": 0,
        "tle_line1": "1 41604U 16040F   25338.09377471  .00215032  00000+0  85334-3 0  9993",
        "tle_line2": "2 41604  97.0702   9.2033 0002783 169.6371 190.4958 15.86156799527357"
      },
      "geometry": {
        "type": "Point",
        "coordinates": [
          172.4522366141405,
          -67.14077472771895
        ]
      }
    },
    {
      "type": "Feature",
      "properties": {
        "norad_id": 41727,
        "name": "GAOFEN-3",
        "group": "resource",
        "lat": -43.21291150974544,
        "lon": 156.18165058649853,
        "alt_km": 758.8362300452018,
        "timestamp": "2025-12-04T10:51:49.763417+00:00",
        "meta_object_name": "GAOFEN-3",
        "meta_object_id": "2016-049A",
        "meta_epoch": "2025-12-04T04:50:04.388352",
        "meta_mean_motion": 14.42209872,
        "meta_eccentricity": 0.0001581,
        "meta_inclination": 98.4041,
        "meta_ra_of_asc_node": 343.9179,
        "meta_arg_of_pericenter": 72.3092,
        "meta_mean_anomaly": 287.827,
        "meta_ephemeris_type": 0,
        "meta_classification_type": "U",
        "meta_norad_cat_id": 41727,
        "meta_element_set_no": 999,
        "meta_rev_at_epoch": 49054,
        "meta_bstar": 3.7184e-06,
        "meta_mean_motion_dot": -3.1e-07,
        "meta_mean_motion_ddot": 0,
        "tle_line1": "1 41727U 16049A   25338.20143968 -.00000031  00000+0  37184-5 0  9997",
        "tle_line2": "2 41727  98.4041 343.9179 0001581  72.3092 287.8270 14.42209872490548"
      },
      "geometry": {
        "type": "Point",
        "coordinates": [
          156.18165058649853,
          -43.21291150974544
        ]
      }
    },
    {
      "type": "Feature",
      "properties": {
        "norad_id": 41771,
        "name": "SKYSAT-C4",
        "group": "resource",
        "lat": 35.53930988516322,
        "lon": -170.9638682606761,
        "alt_km": 437.7596390040262,
        "timestamp": "2025-12-04T10:51:49.763428+00:00",
        "meta_object_name": "SKYSAT-C4",
        "meta_object_id": "2016-058B",
        "meta_epoch": "2025-12-04T00:53:44.549952",
        "meta_mean_motion": 15.41868582,
        "meta_eccentricity": 7.61e-05,
        "meta_inclination": 96.938,
        "meta_ra_of_asc_node": 3.6509,
        "meta_arg_of_pericenter": 119.4734,
        "meta_mean_anomaly": 240.659,
        "meta_ephemeris_type": 0,
        "meta_classification_type": "U",
        "meta_norad_cat_id": 41771,
        "meta_element_set_no": 999,
        "meta_rev_at_epoch": 51533,
        "meta_bstar": 0.00060995,
        "meta_mean_motion_dot": 0.00025858,
        "meta_mean_motion_ddot": 0,
        "tle_line1": "1 41771U 16058B   25338.03732118  .00025858  00000+0  60995-3 0  9995",
        "tle_line2": "2 41771  96.9380   3.6509 0000761 119.4734 240.6590 15.41868582515334"
      },
      "geometry": {
        "type": "Point",
        "coordinates": [
          -170.9638682606761,
          35.53930988516322
        ]
      }
    }
  ]
}